FLOCK 4G-30             
1 62679U 25009BY  26068.70871344  .00013147  00000+0  49475-3 0  9999
2 62679  97.3969 150.6012 0003795 342.4152  17.6955 15.27244548121341
STARLINK-33893          
1 64253U 25119W   26068.01363454  .00034589  00000+0  12599-2 0  9992
2 64253  42.9969 311.0709 0001277 280.8883  79.1825 15.27597675 44066
